locationID,streetName,streetNumber,streetDirection,beatOfOccurence
1,87TH ST,321,W,634
2,CLARK ST,1000,S,123
3,MAPLEWOOD AVE,5829,N,2011
4,NORTH AVE,3956,W,2535
5,HARLEM AVE,5798,N,1612
6,CONGRESS PKWY,3600,W,1133
7,PEORIA ST,8129,S,613
8,CLYBOURN AVE,2506,N,1931
9,LAKE SHORE DR,3130,N,1934
10,IRVING PARK RD,4151,W,1732
11,ELIZABETH ST,6348,S,724
12,63RD ST,3222,W,823
13,BELMONT AVE,555,W,1934
14,DR MARTIN LUTHER KING JR DR,11405,S,531
15,BERWYN AVE,1476,W,2013
16,GRESHAM AVE,2962,N,1412
17,87TH ST,1615,E,412
18,INGLESIDE AVE,6532,S,321
19,NORMAL AVE,10853,S,2233
20,KEDZIE AVE,6222,S,823
21,MADISON ST,5432,W,1522
22,MUSKEGON AVE,8600,S,423
23,LAKE SHORE DR,950,N,1833
24,IRVING PARK RD,12000,W,1654
25,FOSTER AVE,6302,W,1622
26,JEFFERY BLVD,6741,S,331
27,LONG AVE,2540,N,2515
28,LAWRENCE AVE,1001,W,1914
29,31ST ST,742,W,914
30,CENTRAL PARK AVE,8201,S,834
31,GRAND AVE,802,W,1214
32,IRVING PARK RD,11400,W,1654
33,LA SALLE DR,1299,N,1821
34,LAKE SHORE DR,900,N,1833
35,HALSTED ST,331,S,1232
36,KEDZIE AVE,2800,S,1032
37,MADISON ST,2550,W,1222
38,BROADWAY,3314,N,1925
39,HOLLYWOOD AVE,1230,W,2013
40,EXCHANGE AVE,7600,S,421
41,IRVING PARK RD,12300,W,1654
42,CENTRAL PARK AVE,1951,S,1024
43,CICERO AVE,5050,N,1621
44,MADISON ST,599,W,121
45,HARLEM AVE,3535,N,1632
46,111TH ST,3200,W,2211
47,WELLS ST,730,N,1831
48,TALMAN AVE,5419,S,923
49,WOOD ST,3205,S,912
50,MARQUETTE RD,350,E,312
51,PULASKI RD,3827,N,1732
52,IRVING PARK RD,4817,W,1634
53,PULASKI RD,5115,S,822
54,ST LAWRENCE AVE,7100,S,323
55,CICERO AVE,6300,S,813
56,RIDGE AVE,5675,N,2013
57,LAKE SHORE DR E,1800,S,132
58,79TH ST,30,W,623
59,71ST ST,501,E,323
60,LONG AVE,4030,N,1624
61,STATE ST,540,N,1831
62,CORNELL DR,6100,S,331
63,48TH PL,777,W,935
64,MARQUETTE RD,301,E,322
65,TALMAN AVE,6934,S,831
66,LAKE SHORE DR NB,2300,N,1814
67,126TH ST,2636,E,433
68,GRAND AVE,2331,W,1221
69,26TH ST,3311,W,1032
70,CICERO AVE,459,N,1111
71,NEW ENGLAND AVE,2600,N,2512
72,WELLINGTON AVE,4700,W,2521
73,STONY ISLAND AVE,8900,S,413
74,OHARE ST,500,W,1653
75,ABERDEEN ST,171,N,1224
76,DAMEN AVE,958,N,1212
77,BELMONT AVE,5041,W,2521
78,SEDGWICK ST,1455,N,1821
79,LARAMIE AVE,518,S,1522
80,WESTERN AVE,4900,N,2031
81,HARLEM AVE,3104,N,2511
82,CALDWELL AVE,6363,N,1621
83,CRANDON AVE,6930,S,331
84,STONY ISLAND AVE,8015,S,411
85,HALSTED ST,12700,S,523
86,LOWER WACKER DR,300,E,114
87,26TH ST,3001,W,1033
88,MOBILE AVE,4580,N,1622
89,OGDEN AVE,3200,W,1022
90,LAWLER AVE,5110,S,814
91,79TH ST,851,E,624
92,79TH ST,1600,E,411
93,CALIFORNIA AVE,6700,S,831
94,COTTAGE GROVE AVE,6400,S,312
95,CONGRESS PKWY,3716,W,1133
96,BARRY AVE,2845,W,1411
97,PULASKI RD,6141,N,1711
98,101ST ST,201,W,511
99,ARTHUR AVE,1432,W,2432
100,ASHLAND AVE,6940,S,735
101,HALE AVE,10645,S,2212
102,DR MARTIN LUTHER KING JR DR,3101,S,211
103,FULLERTON AVE,3410,W,1413
104,SAWYER AVE,5700,S,822
105,PULASKI RD,1605,S,1014
106,ASHLAND AVE,4423,S,924
107,WABASH AVE,144,S,112
108,CLARK ST,5147,N,2033
109,KEDZIE AVE,5510,S,822
110,ELSTON AVE,5066,N,1623
111,DOTY AVE W,10900,S,513
112,CERMAK RD,2552,W,1023
113,63RD ST,10,W,311
114,MARSHFIELD AVE,4715,S,931
115,CERMAK RD,4320,W,1012
116,ROSEMONT AVE,2209,W,2413
117,ASHLAND AVE,7600,S,611
118,INDIANAPOLIS AVE,10453,S,432
119,PULASKI RD,1205,S,1011
120,LAKE SHORE DR NB,800,N,1833
121,SACRAMENTO BLVD,201,N,1222
122,CERMAK RD,2101,W,1034
123,DAYTON ST,1530,N,1822
124,LA SALLE DR,343,N,1831
125,PINE AVE,742,N,1524
126,53RD PL,5223,W,814
127,SHERIDAN RD,4443,N,1914
128,58TH ST,6258,W,811
129,HARLEM AVE,6300,N,1612
130,HALSTED ST,7110,S,733
131,MILWAUKEE AVE,3336,N,1731
132,WABASH AVE,182,N,111
133,MONTROSE AVE,4750,W,1722
134,DR MARTIN LUTHER KING JR DR,3857,S,212
135,BALBO DR,301,E,114
136,ARMITAGE AVE,3958,W,2525
137,BESSIE COLEMAN DR,172,N,1654
138,CHURCH ST,11334,S,2212
139,111TH ST,323,W,522
140,CHAMPLAIN AVE,7600,S,624
141,DAMEN AVE,7106,N,2424
142,ARCHER AVE,5528,S,814
143,LANGLEY AVE,4700,S,223
144,63RD ST,1158,W,712
145,IRVING PARK RD,3944,W,1723
146,CICERO AVE,6298,S,813
147,CLARK ST,4070,N,1912
148,LAKE SHORE DR,3232,N,1925
149,FLOURNOY ST,3857,W,1133
150,MICHIGAN AVE,5600,S,225
151,WINTHROP AVE,6002,N,2433
152,ADDISON ST,1899,W,1922
153,OGDEN AVE,1835,W,1231
154,WENTWORTH AVE,11700,S,522
155,PAULINA ST,8600,S,614
156,RIDGE AVE,5930,N,2013
157,KEATING AVE,3217,N,1731
158,COTTAGE GROVE AVE,7148,S,323
159,CICERO AVE,4000,S,1031
160,79TH ST,26,E,623
161,CALIFORNIA AVE,6100,S,823
162,FLOURNOY ST,5503,W,1522
163,HALSTED ST,6601,S,723
164,BURNSIDE AVE,9183,S,633
165,LAKE SHORE DR W,1500,S,132
166,CENTRAL AVE,6100,N,1621
167,71ST ST,112,E,322
168,CORNELL AVE,5304,S,234
169,CALIFORNIA AVE,6100,S,823
170,63RD ST,4048,W,813
171,DEVON AVE,2625,W,2413
172,ORLEANS ST,860,N,1823
173,BELMONT AVE,800,W,1924
174,CONGRESS PKWY,4336,W,1131
175,AUGUSTA BLVD,3512,W,1121
176,MONTROSE AVE,2521,W,1911
177,DEVON AVE,7201,W,1611
178,ARCHER AVE,2144,S,914
179,87TH ST,112,W,622
180,HOXIE AVE,10746,S,434
181,OAKLEY BLVD,453,N,1221
182,85TH ST,1400,W,614
183,ST LOUIS AVE,2600,S,1032
184,CICERO AVE,4301,N,1722
185,HALSTED ST,9600,S,2223
186,53RD ST,1530,E,234
187,WESTERN AVE,1616,N,1434
188,COTTAGE GROVE AVE,8101,S,631
189,64TH ST,3800,W,823
190,HALSTED ST,2119,S,1235
191,OGDEN AVE,4000,W,1013
192,DIVISION ST,3200,W,1422
193,COLUMBUS AVE,3600,W,834
194,SAWYER AVE,5511,S,822
195,HARLEM AVE,5599,N,1612
196,LAFAYETTE AVE,7500,S,623
197,64TH ST,1600,W,725
198,WOODLAWN AVE,5200,S,233
199,59TH ST,1234,W,713
200,IRVING PARK RD,4853,W,1634
201,LINCOLN AVE,2170,N,1812
202,LAKE SHORE DR NB,699,S,114
203,ONTARIO ST,150,W,1832
204,69TH ST,2243,E,331
205,CALIFORNIA AVE,5932,S,824
206,OGDEN AVE,3158,W,1022
207,COTTAGE GROVE AVE,6699,S,321
208,MARYLAND AVE,8146,S,631
209,LA SALLE DR,1602,N,1814
210,MILWAUKEE AVE,5940,N,1622
211,AVENUE J,11500,S,433
212,STATE ST,750,N,1832
213,LINCOLN AVE,3100,N,1932
214,40TH PL,1060,E,214
215,103RD ST,630,W,2232
216,ELLIS AVE,13100,S,533
217,NARRAGANSETT AVE,2544,N,2512
218,ONTARIO ST,444,E,1834
219,MICHIGAN AVE,500,N,1834
220,MARQUETTE AVE,8754,S,423
221,67TH ST,1640,E,331
222,PARKSIDE AVE,5475,N,1622
223,FULLERTON AVE,6620,W,2512
224,SACRAMENTO BLVD,500,S,1134
225,51ST PL,2128,W,932
226,TOUHY AVE,2520,W,2411
227,NORTH AVE,4015,W,2534
228,CICERO AVE,731,S,1131
229,76TH ST,1330,W,612
230,55TH ST,2400,W,923
231,ROOSEVELT RD,3204,W,1134
232,DR MARTIN LUTHER KING JR DR,7301,S,323
233,WESTERN AVE,5959,N,2012
234,DR MARTIN LUTHER KING JR DR,6300,S,312
235,CLARK ST,2800,N,1934
236,KEDZIE AVE,4203,N,1724
237,23RD ST,2520,W,1034
238,TRIPP AVE,5709,S,813
239,WESTERN AVE,4357,N,1911
240,NELSON ST,950,W,1933
241,FAIRBANKS CT,605,N,1834
242,CLARK ST,6210,N,2433
243,WESTERN AVE,2200,N,1431
244,MASON AVE,1258,N,2531
245,MADISON ST,4528,W,1113
246,LAKE SHORE DR SB,3100,S,211
247,HARRISON ST,43,W,123
248,CHICAGO SKYWAY IB,6849,S,322
249,KILPATRICK AVE,2205,N,2522
250,ELSTON AVE,4545,N,1722
251,HAYES DR,1929,E,331
252,22ND PL,2800,W,1033
253,CICERO AVE,3833,N,1731
254,CICERO AVE,1,S,1113
255,WESTERN AVE,5500,S,824
256,CENTRAL AVE,3501,N,1633
257,PAULINA ST,1814,S,1234
258,BELMONT AVE,3700,W,1732
259,CHICAGO AVE,5510,W,1524
260,RANDOLPH ST,78,E,111
261,LELAND AVE,3643,W,1723
262,MONTROSE AVE,5910,W,1622
263,CICERO AVE,7651,S,833
264,WABANSIA AVE,4330,W,2534
265,NORTH AVE,4650,W,2533
266,RACINE AVE,1800,S,1233
267,PULASKI RD,5001,N,1712
268,PITNEY CT,3030,S,913
269,IRVING PARK RD,3332,W,1724
270,ADDISON ST,4923,W,1634
271,CENTRAL AVE,6102,S,812
272,CUMBERLAND AVE,5400,N,1614
273,PULASKI RD,4200,N,1722
274,HALSTED ST,9508,S,2223
275,HONORE ST,6009,S,714
276,PULASKI RD,2555,N,2524
277,ANTHONY AVE,8000,S,411
278,NORTH WATER ST,301,E,1834
279,DIVISION ST,4358,W,2534
280,LINDER AVE,3216,N,1633
281,GRAND AVE,4401,W,2533
282,MONROE ST,4947,W,1533
283,GRAND AVE,2200,W,1221
284,ELSTON AVE,1177,N,1213
285,46TH PL,515,E,221
286,DEARBORN ST,241,N,111
287,63RD ST,806,W,712
288,HALSTED ST,9858,S,2232
289,HALSTED ST,1014,N,1822
290,HARLEM AVE,5200,N,1613
291,LECLAIRE AVE,4700,S,814
292,PERSHING RD,1220,W,912
293,SOUTH SHORE DR,7500,S,421
294,59TH ST,2400,W,824
295,68TH PL,3834,W,833
296,FOSTER AVE,6000,W,1622
297,40TH ST,957,E,214
298,KOSTNER AVE,4437,N,1722
299,BELMONT AVE,5129,W,2521
300,103RD ST,3700,W,2211
301,KEELER AVE,4153,N,1722
302,ESSEX AVE,8245,S,423
303,LAKE SHORE DR W,1424,S,132
304,LAKE ST,2927,W,1222
305,CUMBERLAND AVE,5625,N,1614
306,DIVERSEY AVE,5959,W,2514
307,34TH ST,1835,W,912
308,LARAMIE AVE,1150,N,1524
309,87TH ST,112,W,622
310,CAMPBELL AVE,1444,N,1423
311,CLINTON ST,1358,S,124
312,FULLERTON AVE,3731,W,2525
313,90TH ST,1411,W,2222
314,PULASKI RD,1400,N,2534
315,CALIFORNIA AVE,6449,N,2412
316,WESTERN AVE,7104,S,832
317,BESSIE COLEMAN DR,170,N,1654
318,BROADWAY,2906,N,1934
319,ASHLAND AVE,600,S,1231
320,AUGUSTA BLVD,2915,W,1211
321,STONY ISLAND AVE,7424,S,324
322,BELMONT AVE,8600,W,1631
323,79TH ST,4740,W,834
324,69TH ST,2200,W,832
325,PULASKI RD,5901,S,822
326,DIVISION ST,4753,W,1111
327,AUSTIN BLVD,667,S,1513
328,SAWYER AVE,3759,N,1733
329,CICERO AVE,6659,S,833
330,87TH ST,3698,W,834
331,69TH ST,1730,W,725
332,63RD ST,1332,E,314
333,SCHOOL ST,1806,W,1922
334,55TH ST,1766,E,234
335,43RD ST,4254,W,815
336,ELIZABETH ST,727,N,1215
337,MICHIGAN AVE,425,N,1834
338,OCTAVIA AVE,5720,N,1612
339,CLARK ST,1900,N,1814
340,HALSTED ST,6645,S,723
341,LAKE SHORE DR,3100,N,1934
342,ELSTON AVE,4908,N,1712
343,HALSTED ST,9500,S,2223
344,43RD ST,852,E,214
345,71ST ST,399,W,731
346,HARLEM AVE,5301,S,811
347,TOUHY AVE,2411,W,2411
348,PULASKI RD,5204,S,815
349,CALIFORNIA AVE,1158,S,1135
350,MONROE ST,100,W,122
351,LORON AVE,6700,N,1621
352,GRAND AVE,5097,W,2533
353,OHARE ST,10000,W,1651
354,WESTERN AVE,6101,N,2413
355,CLARK ST,628,N,1832
356,LUNT AVE,1204,W,2423
357,130TH ST,247,E,533
358,CICERO AVE,5500,S,813
359,CARROLL AVE,1619,W,1215
360,59TH ST,4729,W,813
361,COLUMBUS AVE,2533,W,835
362,CENTRAL AVE,300,N,1512
363,119TH ST,2574,W,2212
364,63RD ST,1400,W,713
365,FRANKLIN ST,400,S,122
366,MICHIGAN AVE,835,N,1833
367,78TH ST,2402,E,421
368,KIMBALL AVE,1600,N,1422
369,JEFFERSON ST,1000,S,124
370,INDIANAPOLIS AVE,10527,S,432
371,103RD ST,2550,W,2211
372,LAWRENCE AVE,4803,W,1623
373,LOWER COLUMBUS DR,198,N,114
374,PULASKI RD,4100,S,815
375,PETERSON AVE,4032,W,1711
376,LOGAN BLVD,2310,W,1432
377,BURNHAM AVE,8123,S,422
378,ELK GROVE AVE,1402,N,1424
379,FULLERTON AVE,6155,W,2512
380,CLYBOURN AVE,2746,N,1931
381,HARRISON ST,3813,W,1133
382,GRAND AVE,5958,W,2515
383,KEDZIE AVE,4301,S,922
384,59TH ST,1432,W,713
385,WESTERN AVE,2200,S,1034
386,MONTROSE AVE,1159,W,1915
387,STONY ISLAND AVE,7605,S,411
388,SUPERIOR ST,850,W,1214
389,31ST ST,4055,W,1031
390,LAKE ST,3622,W,1123
391,WESTERN AVE,5999,N,2012
392,LAWRENCE AVE,4401,W,1722
393,78TH ST,817,W,621
394,ST LOUIS AVE,4000,N,1723
395,PULASKI RD,460,N,1111
396,ASHLAND AVE,1903,S,1235
397,MADISON ST,4802,W,1533
398,CALIFORNIA AVE,2829,S,1034
399,HARLEM AVE,6033,N,1612
400,87TH ST,1921,W,2221
401,MARINE DR,4140,N,1915
402,LA SALLE DR,1600,N,1814
403,104TH ST,793,E,512
404,53RD ST,1214,E,234
405,87TH ST,1554,E,412
406,MORGAN ST,6100,S,712
407,ASHLAND AVE,2157,S,1235
408,24TH ST,2400,W,1034
409,ELSTON AVE,4340,N,1722
410,LANGLEY AVE,6700,S,321
411,HOMAN AVE,732,S,1133
412,HAYES DR,1681,E,331
413,HENDERSON ST,1499,W,1922
414,PULASKI RD,2454,S,1013
415,79TH ST,616,E,624
416,MARSHFIELD AVE,11702,S,2234
417,LE MOYNE ST,5930,W,2531
418,53RD ST,1214,E,234
419,FULLERTON AVE,5629,W,2515
420,OAKLEY AVE,6430,N,2412
421,LAKE ST,4500,W,1113
422,CHICAGO AVE,351,W,1831
423,CENTRAL AVE,5530,N,1622
424,FOSTER AVE,6445,W,1613
425,LARAMIE AVE,1102,N,1524
426,123RD ST,800,W,524
427,ROOSEVELT RD,500,W,124
428,CICERO AVE,618,N,1532
429,RAVENSWOOD AVE,6801,N,2424
430,INDIANA AVE,11439,S,531
431,CONGRESS PKWY,3701,W,1133
432,KIMBALL AVE,3331,N,1733
433,35TH ST,815,W,915
434,ADAMS ST,1998,W,1223
435,SANGAMON ST,8711,S,2222
436,TORRENCE AVE,12000,S,434
437,CICERO AVE,4198,S,814
438,63RD ST,5899,W,812
439,MONITOR AVE,1304,N,2531
440,CERMAK RD,2758,W,1023
441,UNION AVE,1999,S,1235
442,CLARK ST,628,N,1832
443,MONTROSE AVE,5000,W,1623
444,MC VICKER AVE,5300,S,811
445,FULLERTON AVE,5723,W,2515
446,25TH ST,3002,W,1033
447,PAULINA ST,2135,S,1234
448,SHERIDAN RD,5700,N,2022
449,WOLCOTT AVE,6011,N,2413
450,VERNON AVE,7301,S,323
451,ASHLAND AVE,1959,S,1235
452,CENTRAL AVE,1300,N,2531
453,SHERIDAN RD,5801,N,2022
454,MACKINAW AVE,8310,S,424
455,NORTH AVE,4201,W,2534
456,FULLERTON AVE,5599,W,2515
457,HOYNE AVE,7633,S,611
458,RUSH ST,719,N,1834
459,LAKE SHORE DR NB,3700,N,1925
460,72ND ST,4708,W,833
461,BELMONT AVE,5701,W,2514
462,HURON ST,3200,W,1121
463,JACKSON BLVD,98,W,113
464,LAKE SHORE DR SB,1500,N,1824
465,115TH ST,435,E,532
466,MC LEAN AVE,2800,W,1414
467,LAKE SHORE DR,991,N,1833
468,BURLING ST,2232,N,1812
469,ADDISON ST,3500,W,1732
470,FAIRFIELD AVE,6504,S,831
471,47TH ST,1099,E,222
472,DAMEN AVE,5819,S,715
473,16TH ST,3844,W,1014
474,PULASKI RD,1914,N,2534
475,ROOSEVELT RD,4200,W,1132
476,KEDVALE AVE,1042,N,1111
477,NORTH AVE,4900,W,2533
478,FULLERTON AVE,3400,W,1413
479,STONY ISLAND AVE,8301,S,412
480,MICHIGAN AVE,100,N,111
481,INDIANA AVE,12958,S,532
482,CALUMET AVE,4700,S,224
483,84TH PL,4667,W,834
484,HALSTED ST,1234,N,1822
485,PESHTIGO CT,509,N,1834
486,COLUMBUS DR,200,N,114
487,JEFFERY AVE,9540,S,431
488,99TH ST,814,W,2232
489,OHARE ST,727,W,1654
490,FLOURNOY ST,4801,W,1533
491,KEDZIE AVE,3200,S,1032
492,ROOSEVELT RD,430,W,124
493,NORTH AVE,2349,W,1424
494,FULLERTON AVE,4800,W,2521
495,PRATT BLVD,1129,W,2432
496,95TH ST,198,W,634
497,SACRAMENTO AVE,4405,S,922
498,63RD ST,5900,W,812
499,NARRAGANSETT AVE,2104,N,2512
500,130TH ST,1029,E,533
501,SOLIDARITY DR,530,E,132
502,HALSTED ST,3041,N,1934
503,SPRINGFIELD AVE,5830,S,822
504,71ST ST,2100,W,735
505,LAKE SHORE DR NB,1324,N,1824
506,SUPERIOR ST,221,E,1834
507,82ND ST,1120,E,411
508,SHERIDAN RD,4040,N,1915
509,71ST ST,3949,W,833
510,IOWA ST,5259,W,1524
511,NORMAL BLVD,5900,S,711
512,NORTH AVE,3832,W,2535
513,ASHLAND AVE,4700,S,931
514,MICHIGAN AVE,737,N,1833
515,INDIANA AVE,3718,S,212
516,ELSTON AVE,2400,N,1432
517,CATALPA AVE,2798,W,2011
518,AVENUE O,11321,S,433
519,CHICAGO AVE,1301,W,1215
520,BELMONT AVE,1640,W,1922
521,DAMEN AVE,7328,S,735
522,31ST ST,4324,W,1031
523,FOSTER AVE,7200,W,1613
524,KEEFE AVE,6808,S,321
525,CENTRAL AVE,301,N,1523
526,CICERO AVE,4735,S,815
527,TOUHY AVE,7206,W,1611
528,ADDISON ST,4139,W,1731
529,THOME AVE,1700,W,2433
530,RUSH ST,551,N,1834
531,61ST ST,2521,W,825
532,83RD ST,2600,E,423
533,AUSTIN AVE,3200,N,1633
534,95TH ST,2241,W,2213
535,OHIO ST,136,W,1832
536,46TH ST,300,E,215
537,CENTRAL AVE,6318,N,1621
538,47TH ST,1900,W,924
539,18TH PL,2331,W,1234
540,ASHLAND AVE,4200,S,924
541,21ST PL,1999,W,1234
542,LAKE PARK AVE,3906,S,212
543,76TH ST,1600,E,411
544,DEVON AVE,1848,W,2432
545,STONY ISLAND AVE,9500,S,511
546,STONY ISLAND AVE,9400,S,413
547,ARCHER AVE,3909,S,921
548,COTTAGE GROVE AVE,11101,S,531
549,MADISON ST,5230,W,1522
550,PULASKI RD,7019,S,833
551,PULASKI RD,826,N,1111
552,CICERO AVE,1,S,1113
553,FAIRFIELD AVE,6155,S,825
554,FARWELL AVE,1635,W,2431
555,BROADWAY,5936,N,2013
556,WASHINGTON ST,409,W,121
557,LAKE ST,1700,W,1215
558,CICERO AVE,5050,N,1621
559,MICHIGAN AVE,425,N,1834
560,KINGSBURY ST,1531,N,1822
561,KEDZIE AVE,3940,N,1733
562,LAKE SHORE DR E,1400,S,132
563,PULASKI RD,3833,S,821
564,LARAMIE AVE,2808,N,2514
565,73RD PL,1399,W,734
566,IOWA ST,3833,W,1112
567,TOUHY AVE,2300,W,2411
568,WASHINGTON BLVD,2100,W,1223
569,DIVERSEY AVE,4450,W,2523
570,BELMONT AVE,4785,W,2521
571,MONTROSE AVE,3300,W,1724
572,RIDGE BLVD,7200,N,2411
573,CLARK ST,7411,N,2422
574,WESTERN AVE,4836,N,2031
575,RIDGE BLVD,7530,N,2411
576,SPRINGFIELD AVE,2846,N,2523
577,LAFAYETTE AVE,9462,S,634
578,KIMBALL AVE,2432,N,1413
579,31ST ST,2532,W,1034
580,LOOMIS BLVD,5744,S,713
581,ASHLAND BLVD,6970,N,2431
582,LOWER WACKER DR,400,E,114
583,OAK PARK AVE,1600,N,2513
584,ROOSEVELT RD,68,E,123
585,TAYLOR ST,842,W,1232
586,LA SALLE DR,1700,N,1814
587,LOWER WACKER DR,300,E,114
588,WESTERN AVE,9321,S,2221
589,ASHLAND AVE,36,S,1224
590,HUBBARD ST,200,W,1831
591,GARFIELD BLVD,101,E,231
592,KOSTNER AVE,1100,S,1131
593,FULLERTON AVE,2609,W,1431
594,MONTROSE AVE,3973,W,1723
595,CICERO AVE,5458,S,815
596,ARMITAGE AVE,1636,W,1432
597,MONTICELLO AVE,3200,N,1732
598,BLUE ISLAND AVE,2598,S,1034
599,CLYBOURN AVE,3149,N,1931
600,WESTERN AVE,1118,S,1135
601,DEARBORN ST,200,N,111
602,PAULINA ST,400,S,1231
603,47TH ST,4340,W,815
604,TROY ST,522,N,1221
605,RIDGE BLVD,7417,N,2424
606,DAMEN AVE,6700,N,2412
607,WASHBURNE AVE,1224,W,1233
608,WASHINGTON BLVD,500,W,121
609,CANAL ST,2338,S,914
610,ELLIS AVE,13000,S,533
611,LINCOLN AVE,3745,N,1922
612,PETERSON AVE,4655,W,1711
613,STATE ST,401,N,1834
614,LAKE SHORE DR SB,1100,N,1824
615,WESTERN AVE,8701,S,2221
616,CENTRAL AVE,2700,N,2514
617,WESTERN AVE,2730,N,1411
618,LARRABEE ST,1462,N,1822
619,IRVING PARK RD,3400,W,1723
620,69TH ST,31,W,731
621,ARCHER AVE,6401,W,811
622,WILSON DR,700,W,1914
623,ARTESIAN AVE,4149,S,921
624,SHEFFIELD AVE,3456,N,1924
625,LIPPS AVE,4899,N,1623
626,WABASH AVE,405,N,1834
627,TOUHY AVE,1753,W,2423
628,ASHLAND AVE,4749,N,1912
629,ROOSEVELT RD,670,W,1232
630,BROADWAY,5224,N,2013
631,COLUMBUS AVE,3538,W,834
632,ASHLAND AVE,3418,N,1922
633,JACKSON BLVD,4740,W,1113
634,SOUTH CHICAGO AVE,7391,S,324
635,KEDZIE AVE,7625,S,835
636,OAK ST,2,E,1824
637,GARFIELD BLVD,233,W,711
638,RACINE AVE,9300,S,2222
639,CARPENTER ST,5750,S,712
640,LEAVITT ST,9445,S,2221
641,DR MARTIN LUTHER KING JR DR,2300,S,132
642,MICHIGAN AVE,341,N,114
643,SCHUBERT AVE,6339,W,2512
644,BELMONT AVE,7210,W,1631
645,INDIANA AVE,5166,S,231
646,STEWART AVE,7500,S,621
647,WEST END AVE,5929,W,1512
648,COLUMBUS DR,300,S,114
649,TORRENCE AVE,10446,S,434
650,WABASH AVE,1333,S,131
651,EDDY ST,5358,W,1634
652,PULASKI RD,15,N,1122
653,BRYN MAWR AVE,6234,W,1622
654,ASHLAND AVE,4259,S,924
655,ARCHER AVE,2162,S,914
656,LUNT AVE,1710,W,2423
657,KEDZIE AVE,3030,S,1032
658,HARRISON ST,3151,W,1134
659,26TH ST,3311,W,1032
660,WESTERN AVE,6025,S,825
661,DIVERSEY PKWY,1970,W,1931
662,ASHLAND AVE,5800,N,2012
663,EBERHART AVE,13001,S,533
664,CALIFORNIA BLVD,1501,S,1023
665,RACINE AVE,6858,S,724
666,75TH ST,300,E,323
667,47TH ST,1300,W,924
668,CICERO AVE,7131,S,833
669,HALSTED ST,7000,S,733
670,RACINE AVE,7099,S,733
671,BELMONT AVE,3159,W,1411
672,NORTH AVE,4430,W,2533
673,CALIFORNIA AVE,801,S,1135
674,ADAMS ST,1098,W,1232
675,59TH ST,4232,W,813
676,HOLLYWOOD AVE,1240,W,2013
677,LAKE SHORE DR,1035,N,1824
678,PAYNE DR,5750,S,233
679,73RD ST,1100,E,324
680,KEDZIE AVE,6401,N,2412
681,CENTRAL AVE,645,S,1522
682,SAWYER AVE,2016,N,1413
683,HOYNE AVE,5047,S,931
684,IRVING PARK RD,5428,W,1624
685,LARAMIE AVE,342,N,1523
686,STATE ST,934,N,1832
687,FULLERTON AVE,2151,W,1432
688,73RD PL,1586,E,324
689,DEVON AVE,2445,W,2413
690,MORGAN ST,3800,S,915
691,CALIFORNIA AVE,2120,S,1023
692,BELMONT AVE,3920,W,1732
693,PETERSON AVE,1818,W,2413
694,LAKE SHORE DR SB,1700,N,1814
695,55TH ST,3958,W,822
696,47TH ST,3597,W,821
697,47TH ST,835,E,223
698,IOWA ST,3808,W,1112
699,LAWNDALE AVE,5100,S,822
700,ASHLAND AVE,9500,S,2213
701,ST LOUIS AVE,1819,N,1422
702,ADAMS ST,4400,W,1113
703,119TH ST,2338,W,2212
704,CALIFORNIA AVE,1664,N,1421
705,WRIGHTWOOD AVE,6221,W,2512
706,WASHINGTON BLVD,2901,W,1222
707,SOUTH CHICAGO AVE,8800,S,423
708,CHICAGO AVE,3932,W,1112
709,LINCOLN AVE,6075,N,1711
710,ADDISON ST,3807,W,1732
711,RHODES AVE,6108,S,313
712,WABASH AVE,7900,S,623
713,FRANKLIN ST,115,S,122
714,95TH ST,1546,W,2221
715,SACRAMENTO AVE,3613,N,1733
716,BELMONT AVE,601,W,1934
717,GRANVILLE AVE,1040,W,2433
718,ASHLAND AVE,3160,S,912
719,ESCANABA AVE,7912,S,422
720,PARKER AVE,3407,W,1412
721,RANDOLPH ST,1032,W,1224
722,NORTH AVE,5700,W,2531
723,111TH ST,201,E,531
724,PARKING LOT E SEC G ST,1,W,1654
725,CALIFORNIA AVE,3304,S,911
726,18TH ST,239,W,914
727,KEDZIE AVE,6700,S,831
728,CENTRAL AVE,2,N,1513
729,GARFIELD BLVD,2304,W,932
730,MOZART ST,117,N,1222
731,AUSTIN AVE,4456,N,1622
732,YATES AVE,10044,S,431
733,MAY ST,1005,S,1232
734,MICHIGAN AVE,6926,S,322
735,ASHLAND AVE,6700,S,725
736,IOWA ST,5420,W,1524
737,ALBANY AVE,5454,S,923
738,COTTAGE GROVE AVE,5627,S,235
739,HALSTED ST,9622,S,2223
740,KILDARE AVE,3000,S,1031
741,PULASKI RD,3930,N,1732
742,CICERO AVE,4800,N,1623
743,111TH ST,1098,E,513
744,DIVISION ST,200,W,1821
745,TRIPP AVE,5636,S,813
746,LAKE ST,340,W,122
747,95TH ST,2000,E,413
748,AUSTIN AVE,4646,N,1622
749,SUPERIOR ST,108,E,1833
750,RANDOLPH ST,10,W,111
751,MC FETRIDGE DR,342,E,132
752,MAPLEWOOD AVE,6513,S,832
753,GREENVIEW AVE,6200,N,2433
754,TORRENCE AVE,10351,S,434
755,IRVING PARK RD,12700,W,1654
756,MILWAUKEE AVE,847,N,1213
757,ARCHER AVE,6415,W,811
758,OGDEN AVE,3555,W,1024
759,PULASKI RD,2999,S,1031
760,ASHLAND AVE,4600,S,924
761,IRVING PARK RD,10249,W,1654
762,CLYBOURN AVE,1500,N,1822
763,GREEN ST,100,S,1232
764,119TH ST,900,W,524
765,ARCHER AVE,5874,S,814
766,31ST ST,1650,W,912
767,WESTERN AVE,5234,S,923
768,MAGNOLIA AVE,1400,N,1433
769,MILWAUKEE AVE,6336,N,1611
770,PULASKI RD,1415,S,1011
771,LAKE SHORE DR NB,799,N,1833
772,KEDZIE AVE,6401,N,2412
773,ASHLAND AVE,204,S,1231
774,38TH ST,310,E,212
775,NORTH AVE,6130,W,2513
776,JONQUIL TER,1551,W,2422
777,BELLE PLAINE AVE,4157,W,1722
778,BRYN MAWR AVE,6141,W,1622
779,ADDISON ST,2932,W,1733
780,PRAIRIE AVE,4600,S,215
781,35TH ST,653,W,915
782,ARCHER AVE,4459,S,821
783,RIDGE BLVD,7000,N,2411
784,GREEN BAY AVE,10735,S,432
785,DIVISION ST,3631,W,1112
786,ASHLAND AVE,1102,N,1213
787,WESTERN AVE,2323,S,1034
788,ASHLAND AVE,2402,N,1931
789,WESTERN AVE,5510,N,2011
790,MERRILL AVE,6940,S,331
791,COLUMBUS DR,221,N,114
792,BYRON ST,4859,W,1634
793,WABASH AVE,5450,S,225
794,82ND PL,4660,W,834
795,LAKE ST,817,W,1224
796,EXCHANGE AVE,7557,S,421
797,CALIFORNIA BLVD,2856,S,1034
798,VINCENNES AVE,7934,S,621
799,SPRINGFIELD AVE,4400,S,821
800,WASHTENAW AVE,1332,S,1023
801,109TH ST,3599,E,432
802,WABASH AVE,4734,S,224
803,92ND ST,14,E,634
804,KIMBALL AVE,4831,N,1713
805,STATE ST,8305,S,632
806,WINTHROP AVE,6314,N,2433
807,MADISON ST,5255,W,1522
808,79TH ST,2406,W,835
809,IRVING PARK RD,5145,W,1634
810,ASHLAND AVE,2020,N,1432
811,STONY ISLAND AVE,7899,S,411
812,MICHIGAN AVE,340,N,111
813,HALSTED ST,1610,N,1813
814,CANAL ST,800,S,124
815,MAY ST,6900,S,733
816,KEDZIE AVE,4200,S,821
817,LAKE ST,1371,W,1224
818,MICHIGAN AVE,985,N,1833
819,63RD ST,6255,W,812
820,CICERO AVE,3501,N,1731
821,KINGSTON AVE,8814,S,423
822,ST LOUIS AVE,7400,S,835
823,AUGUSTA BLVD,4032,W,1111
824,PERSHING RD,2400,W,911
825,ASHLAND AVE,2637,S,913
826,MICHIGAN AVE,6900,S,322
827,WABASH AVE,525,S,123
828,CARPENTER ST,1717,S,1235
829,IRVING PARK RD,5401,W,1633
830,WEST END AVE,4003,W,1114
831,ELSTON AVE,4077,N,1723
832,LINCOLN AVE,4900,N,2031
833,KEDZIE AVE,4800,S,821
834,FULLERTON AVE,3940,W,2524
835,OHIO ST,3828,W,1122
836,PONTIAC AVE,3437,N,1631
837,83RD ST,307,W,622
838,TERMINAL ST,3,W,1653
839,BROADWAY,5700,N,2013
840,ARCHER AVE,3257,S,912
841,DIVERSEY AVE,5714,W,2514
842,ASHLAND AVE,4900,S,931
843,LAWNDALE AVE,3100,N,2523
844,WASHINGTON BLVD,5905,W,1513
845,MADISON ST,3501,W,1123
846,SHERIDAN RD,6551,N,2432
847,PERSHING RD,858,E,212
848,STATE ST,534,N,1831
849,63RD ST,4535,W,813
850,GRAND AVE,11,E,1834
851,KOSTNER AVE,1740,N,2533
852,CERMAK RD,350,W,914
853,DIVERSEY PKWY,1970,W,1931
854,LAWRENCE AVE,2409,W,1911
855,LAWRENCE AVE,5030,W,1623
856,SAWYER AVE,10306,S,2211
857,LAKE PARK AVE,4300,S,222
858,HALSTED ST,12800,S,523
859,BELMONT AVE,3320,W,1733
860,CHICAGO AVE,5520,W,1524
861,NORTH AVE,2600,W,1421
862,75TH ST,342,W,731
863,DIVISION ST,500,W,1821
864,CLARENDON AVE,4000,N,1915
865,CHICAGO AVE,3727,W,1112
866,HUDSON AVE,872,N,1823
867,MASSASOIT AVE,5995,S,812
868,KEELER AVE,7948,S,834
869,TORRENCE AVE,10400,S,434
870,CICERO AVE,2000,N,2522
871,KEDZIE AVE,10331,S,2211
872,THOMAS ST,3630,W,1112
873,87TH ST,199,E,632
874,WESTERN AVE,5615,S,824
875,CHESTNUT ST,200,E,1833
876,HALSTED ST,2556,S,913
877,87TH ST,1543,E,412
878,WRIGHTWOOD AVE,405,W,1935
879,CENTRAL AVE,699,N,1524
880,KEDZIE AVE,11154,S,2211
881,AVENUE L,10600,S,432
882,PULASKI RD,1200,N,2534
883,DIVERSEY AVE,6548,W,2511
884,ASHLAND AVE,7729,N,2422
885,KIMBALL AVE,1909,N,1422
886,TORRENCE AVE,13000,S,434
887,ASHLAND AVE,1225,S,1233
888,LAKE ST,3620,W,1123
889,DR MARTIN LUTHER KING JR DR,3300,S,211
890,WELLS ST,354,S,122
891,CICERO AVE,5700,S,813
892,DAMEN AVE,8300,S,614
893,OAKLEY AVE,6351,N,2413
894,47TH ST,837,E,223
895,63RD ST,3307,W,823
896,VINCENNES AVE,8700,S,2222
897,PULASKI RD,4802,N,1712
898,CAMPBELL AVE,145,S,1125
899,WEST END AVE,4801,W,1532
900,KEDVALE AVE,7842,S,834
901,ASHLAND AVE,3501,N,1922
902,STOCKTON DR,1900,N,1814
903,GARFIELD BLVD,199,E,231
904,PEORIA ST,11900,S,524
905,HARRISON ST,3151,W,1134
906,INDIANA AVE,7341,S,323
907,VAN BUREN ST,2358,W,1225
908,KIMBALL AVE,5054,N,1712
909,LINCOLN AVE,5523,N,2011
910,47TH ST,2330,W,924
911,RIDGE BLVD,7072,N,2411
912,BELMONT AVE,3447,W,1412
913,EBERHART AVE,10501,S,512
914,PULASKI RD,4043,S,821
915,BRYN MAWR AVE,2925,W,2011
916,WOODLAWN AVE,9500,S,511
917,WHIPPLE ST,2541,S,1033
918,SCHUBERT AVE,799,W,1935
919,ASHLAND AVE,1825,S,1233
920,TERMINAL ST,5,W,1655
921,CARPENTER ST,312,N,1214
922,HUBBARD ST,700,W,1214
923,GRAND AVE,4850,W,2533
924,BELMONT AVE,2417,W,1931
925,ARCHER AVE,6107,S,811
926,KEDZIE AVE,7601,S,835
927,CALIFORNIA AVE,2923,N,1411
928,48TH ST,4448,W,815
929,59TH ST,2038,W,715
930,WACKER DR,205,W,122
931,63RD ST,650,W,711
932,IRVING PARK RD,5133,W,1634
933,SOUTHPORT AVE,2548,N,1932
934,KIMBALL AVE,3200,N,1732
935,STATE ST,9500,S,511
936,ROOSEVELT RD,22,E,123
937,RACINE AVE,9410,S,2222
938,CERMAK RD,1701,W,1034
939,NARRAGANSETT AVE,1700,N,2513
940,CALIFORNIA AVE,4137,S,921
941,63RD ST,5637,W,812
942,PULASKI RD,1206,N,2534
943,ADDISON ST,2600,W,1921
944,STATE ST,727,S,123
945,CHRISTIANA AVE,4810,N,1713
946,CICERO AVE,4601,N,1722
947,CALIFORNIA AVE,3401,S,911
948,MONTROSE AVE,6224,W,1622
949,ST CLAIR ST,675,N,1834
950,ERIE ST,259,E,1834
951,55TH ST,2800,W,923
952,WASHTENAW AVE,6200,S,825
953,130TH ST,2800,E,433
954,CICERO AVE,1800,N,2533
955,WELLS ST,4234,S,925
956,DAMEN AVE,7300,N,2424
957,CICERO AVE,3602,N,1634
958,HERMITAGE AVE,6359,N,2433
959,LARAMIE AVE,300,S,1522
960,INDIANA AVE,1200,S,132
961,WESTERN AVE,4200,S,921
962,DAMEN AVE,3000,N,1931
963,CANAL ST,1008,S,124
964,MICHIGAN AVE,2640,S,133
965,SHERIDAN RD,5702,N,2022
966,DEVON AVE,6359,W,1611
967,LAVERGNE AVE,436,N,1532
968,WESTERN AVE,4700,S,922
969,MILWAUKEE AVE,6375,N,1611
970,PULASKI RD,3100,N,2523
971,WEBSTER AVE,1450,W,1811
972,63RD ST,5615,W,812
973,KOSTNER AVE,813,S,1131
974,JACKSON BLVD,900,W,1232
975,CENTRAL AVE,1400,N,2531
976,NORTH AVE,4215,W,2534
977,LAKE SHORE DR SB,800,N,1833
978,KOMENSKY AVE,1400,S,1011
979,FULLERTON PKWY,500,W,1935
980,WESTERN AVE,2731,S,1034
981,ST LAWRENCE AVE,11212,S,531
982,MICHIGAN AVE,9500,S,511
983,ADDISON ST,3554,W,1732
984,CALIFORNIA AVE,4737,S,922
985,HIRSCH ST,4343,W,2534
986,ASHLAND AVE,1630,S,1234
987,LOWER WACKER DR,77,W,111
988,SHORE DR,5501,S,235
989,WILSON AVE,5130,W,1623
990,STATE ST,11000,S,513
991,BENSLEY AVE,10305,S,434
992,MONTROSE AVE,5499,W,1624
993,HARLEM AVE,6201,S,812
994,NORTH AVE,1927,W,1424
995,DAVLIN CT,3137,N,2523
996,CHICAGO AVE,2912,W,1211
997,ELLIS AVE,8300,S,632
998,DIVISION ST,36,W,1824
999,NORTH BRANCH ST,900,N,1822
1000,ASHLAND AVE,6900,S,735
1001,STATE PKWY,1221,N,1824
1002,RUBLE ST,1999,S,1235
1003,RUBLE ST,1230,S,1232
1004,33RD ST,1931,W,912
1005,LAMON AVE,1158,N,1531
1006,ASHLAND AVE,1200,S,1233
1007,WESTERN AVE,2402,N,1431
1008,LAKE ST,819,W,1224
1009,ONTARIO ST,247,E,1834
1010,GLENLAKE AVE,2422,W,2413
1011,93RD ST,2600,E,423
1012,LA SALLE DR,104,W,1814
1013,KIMBALL AVE,3009,N,1412
1014,PULASKI RD,114,S,1115
1015,JEFFERSON ST,600,S,124
1016,ASHLAND AVE,3500,S,912
1017,MILWAUKEE AVE,6356,N,1611
1018,DAMEN AVE,2900,S,912
1019,WASHINGTON BLVD,2000,W,1223
1020,95TH ST,1820,W,2221
1021,ASTOR ST,1430,N,1824
1022,DIVISION ST,144,W,1821
1023,LE MOYNE ST,3406,W,1422
1024,GRENSHAW ST,3946,W,1132
1025,CALIFORNIA AVE,2299,N,1431
1026,MARQUETTE RD,2350,W,832
1027,87TH ST,1201,W,2222
1028,ALTGELD ST,5129,W,2521
1029,SCHUBERT AVE,3109,W,1411
1030,PULASKI RD,3928,S,815
1031,LAKE SHORE DR SB,3100,S,211
1032,INDIANA AVE,10601,S,512
1033,WATKINS AVE,11800,S,2234
1034,87TH ST,10,E,632
1035,47TH ST,200,W,215
1036,127TH ST,199,E,532
1037,TALCOTT AVE,7266,W,1612
1038,84TH PL,1743,E,412
1039,21ST ST,3100,W,1022
1040,LANGLEY AVE,7100,S,323
1041,WESTERN AVE,6600,N,2412
1042,BURLING ST,2548,N,1935
1043,KEDZIE AVE,2550,S,1024
1044,VAN BUREN ST,2858,W,1124
1045,62ND ST,2527,W,825
1046,DR MARTIN LUTHER KING JR DR,2851,S,133
1047,PRATT BLVD,1108,W,2431
1048,ORLEANS ST,401,N,1831
1049,RACINE AVE,315,N,1214
1050,DIVERSEY AVE,6000,W,2511
1051,CHICAGO AVE,200,E,1833
1052,KENTON AVE,2443,N,2521
1053,NARRAGANSETT AVE,4000,N,1632
1054,KEDZIE AVE,4030,N,1724
1055,WESTERN AVE,3755,N,1921
1056,LAKE SHORE DR SB,1500,N,1824
1057,DAMEN AVE,6555,S,726
1058,CERMAK RD,138,W,914
1059,MAPLEWOOD AVE,4400,S,922
1060,ARCHER AVE,6398,S,811
1061,CUMBERLAND AVE,5327,N,1614
1062,HALSTED ST,9810,S,2223
1063,CAMPBELL AVE,6437,N,2412
1064,FULLERTON AVE,4302,W,2524
1065,FULLERTON AVE,3509,W,1413
1066,KIMBALL AVE,4926,N,1712
1067,LAKE SHORE DR NB,1111,N,1824
1068,ROOSEVELT RD,3430,W,1133
1069,WASHINGTON BLVD,2800,W,1222
1070,80TH ST,2417,W,835
1071,JACKSON BLVD,4540,W,1113
1072,KEDZIE AVE,3700,N,1733
1073,LAKE SHORE DR NB,1221,S,132
1074,CICERO AVE,7759,S,834
1075,COMMERCIAL AVE,8900,S,423
1076,CHRISTIANA AVE,1658,S,1021
1077,75TH ST,332,E,323
1078,CERMAK RD,2332,W,1234
1079,LAKE SHORE DR SB,2399,N,1814
1080,DIVISION ST,1914,W,1424
1081,37TH ST,438,E,212
1082,PETERSON AVE,4058,W,1711
1083,ADDISON ST,1645,W,1922
1084,MONTROSE AVE,5164,W,1623
1085,63RD ST,900,W,712
1086,WASHINGTON BLVD,2050,W,1223
1087,STATE ST,3101,S,211
1088,LAKE PARK AVE,4700,S,222
1089,UNION AVE,5517,S,711
1090,138TH ST,340,E,533
1091,DAMEN AVE,600,S,1225
1092,OHARE ST,10000,W,1651
1093,OHIO ST,160,W,1832
1094,LAKE SHORE DR SB,5400,N,2023
1095,FULLERTON AVE,4741,W,2522
1096,67TH ST,1708,E,331
1097,AVENUE J,10903,S,432
1098,TORRENCE AVE,13000,S,434
1099,IRVING PARK RD,4939,W,1634
1100,BENNETT AVE,9140,S,413
1101,HALSTED ST,9035,S,2223
1102,AUSTIN AVE,3400,N,1633
1103,CLARK ST,1615,S,131
1104,BELL AVE,7259,N,2411
1105,DEVON AVE,3999,W,1711
1106,SANGAMON ST,10213,S,2232
1107,IRVING PARK RD,1501,W,1922
1108,94TH ST,1500,W,2221
1109,ASHLAND AVE,2211,N,1432
1110,KOSTNER AVE,5800,S,813
1111,HOMAN AVE,4642,S,821
1112,87TH ST,10,E,632
1113,LAKE SHORE DR SB,800,N,1833
1114,18TH ST,571,W,1235
1115,SHEFFIELD AVE,3749,N,1923
1116,MICHIGAN AVE,1345,S,132
1117,PULASKI RD,7900,S,834
1118,BENNETT AVE,8757,S,412
1119,18TH ST,500,W,1235
1120,48TH ST,1631,W,931
1121,CICERO AVE,2500,N,2521
1122,ARCHER AVE,6403,W,811
1123,59TH ST,300,W,711
1124,ORLEANS ST,1011,N,1823
1125,VINCENNES AVE,7600,S,623
1126,IRVING PARK RD,5414,W,1624
1127,LAKE SHORE DR,800,N,1833
1128,CALIFORNIA AVE,6300,S,823
1129,PULASKI RD,5200,S,815
1130,KEEFE AVE,6857,S,322
1131,79TH ST,4759,W,834
1132,INDIANAPOLIS AVE,10553,S,432
1133,HALSTED ST,166,N,1224
1134,PULASKI RD,3950,S,815
1135,PULASKI RD,4012,N,1722
1136,PARNELL AVE,12248,S,523
1137,ROOSEVELT RD,700,W,1232
1138,75TH ST,10,E,323
1139,LAKE SHORE DR SB,1516,N,1824
1140,BROADWAY,3434,N,1925
1141,YATES BLVD,7718,S,414
1142,DEVON AVE,2805,W,2413
1143,DEVON AVE,1886,W,2432
1144,NORTH AVE,5611,W,2531
1145,ASHLAND AVE,34,S,1224
1146,77TH ST,2402,E,421
1147,EVANS AVE,6742,S,321
1148,AUSTIN AVE,3628,N,1633
1149,BYRON ST,7212,W,1631
1150,SACRAMENTO AVE,4410,N,1724
1151,HARLEM AVE,3737,N,1632
1152,WESTERN AVE,11800,S,2212
1153,DAMEN AVE,7516,N,2424
1154,ARTESIAN AVE,6351,S,825
1155,WESTERN AVE,6359,N,2413
1156,MILWAUKEE AVE,5101,N,1623
1157,GLENLAKE AVE,3600,W,1711
1158,DAMEN AVE,1531,N,1424
1159,BEST DR,799,E,233
1160,HERMITAGE AVE,6408,N,2432
1161,47TH ST,600,E,221
1162,DAMEN AVE,431,S,1225
1163,STONY ISLAND AVE,9100,S,413
1164,ARMITAGE AVE,4301,W,2534
1165,LAVERGNE AVE,2631,N,2521
1166,SANGAMON ST,8541,S,613
1167,CLARK ST,5201,N,2013
1168,HALSTED ST,702,N,1214
1169,FULLERTON AVE,4850,W,2521
1170,NORMAL BLVD,6900,S,732
1171,BERNARD ST,4444,N,1723
1172,CHICAGO AVE,3759,W,1112
1173,DR MARTIN LUTHER KING JR DR,8436,S,632
1174,DAMEN AVE,8000,S,611
1175,ELSTON AVE,2750,N,1432
1176,CHICAGO AVE,376,E,1833
1177,HARLEM AVE,3203,N,1632
1178,ST LOUIS AVE,5545,S,822
1179,PULASKI RD,3800,S,815
1180,LAWRENCE DR,598,W,2024
1181,DREXEL AVE,5106,S,233
1182,LEAVITT ST,4757,N,1911
1183,GARFIELD BLVD,432,W,935
1184,CLARK ST,3420,N,1924
1185,DEVON AVE,1558,W,2432
1186,BELMONT AVE,851,W,1933
1187,NORTH AVE,647,W,1822
1188,SHERIDAN RD,5930,N,2022
1189,CARMEN AVE,3230,W,1713
1190,RACINE AVE,6900,S,734
1191,CICERO AVE,7401,S,833
1192,TOUHY AVE,2626,W,2411
1193,LINCOLN AVE,3145,N,1933
1194,CLARK ST,1251,S,131
1195,PRAIRIE AVE,8300,S,632
1196,NASHVILLE AVE,4817,N,1613
1197,CENTRAL AVE,654,N,1511
1198,ARCHER AVE,2477,S,914
1199,COLUMBUS DR,200,N,114
1200,OAKLEY AVE,4828,S,931
1201,KEDZIE AVE,5931,S,824
1202,WESTERN AVE,4249,N,1911
1203,CHICAGO AVE,5158,W,1531
1204,HENDERSON ST,4201,W,1731
1205,AUSTIN BLVD,701,S,1513
1206,CUMBERLAND AVE,4358,N,1614
1207,TERMINAL ST,2,W,1652
1208,BELMONT AVE,2202,W,1921
1209,63RD ST,4161,W,813
1210,CAMPBELL AVE,4113,S,921
1211,95TH ST,1500,W,2221
1212,PEORIA ST,100,S,1232
1213,COTTAGE GROVE AVE,8700,S,632
1214,BRYN MAWR AVE,1000,W,2022
1215,OKETO AVE,5339,N,1613
1216,51ST ST,239,E,231
1217,SEELEY AVE,703,S,1225
1218,COLUMBUS DR,230,S,114
1219,CLARK ST,2467,N,1935
1220,CAMBRIDGE AVE,840,N,1823
1221,MOZART ST,5400,S,923
1222,PEORIA ST,7735,S,621
1223,MILWAUKEE AVE,5310,N,1622
1224,EXCHANGE AVE,7858,S,421
1225,LAKE SHORE DR SB,500,S,114
1226,CICERO AVE,4313,S,815
1227,95TH ST,1040,W,2223
1228,ST LOUIS AVE,5902,S,822
1229,BELL AVE,7515,N,2411
1230,LEYDEN AVE,13700,S,533
1231,DIVISION ST,2233,W,1212
1232,ASHLAND AVE,3700,N,1922
1233,OHIO ST,3448,W,1121
1234,KEDZIE AVE,11058,S,2211
1235,MICHIGAN AVE,875,N,1833
1236,DR MARTIN LUTHER KING JR DR,2898,S,133
1237,LINCOLN AVE,6012,N,2413
1238,IRVING PARK RD,10700,W,1654
1239,79TH ST,32,W,623
1240,ELSTON AVE,3467,N,1733
1241,FULLERTON AVE,2399,W,1432
1242,ALBANY AVE,3500,N,1733
1243,LAKE SHORE DR NB,4901,N,2024
1244,VINCENNES AVE,7851,S,623
1245,KEDZIE AVE,6225,S,823
1246,FOSTER AVE,3136,W,1712
1247,DAMEN AVE,2500,S,1034
1248,HOWARD ST,1947,W,2424
1249,79TH ST,643,W,621
1250,BIRCHWOOD AVE,1457,W,2422
1251,71ST ST,429,W,732
1252,ARMITAGE AVE,3401,W,1422
1253,LINCOLN AVE,1925,N,1814
1254,63RD ST,4354,W,813
1255,LAKE ST,5144,W,1532
1256,TOUHY AVE,2555,W,2411
1257,PULASKI RD,2739,N,2524
1258,DIVISION ST,111,W,1824
1259,LA SALLE DR,515,N,1831
1260,DIVISION ST,4249,W,1111
1261,CENTRAL PARK AVE,6426,S,823
1262,STATE ST,9500,S,511
1263,63RD ST,2006,W,714
1264,RIDGE AVE,5990,N,2012
1265,ROOSEVELT RD,3401,W,1021
1266,CICERO AVE,539,N,1111
1267,IRVING PARK RD,8330,W,1614
1268,18TH ST,1401,W,1233
1269,79TH ST,900,W,621
1270,KILPATRICK AVE,6612,S,833
1271,IRVING PARK RD,4001,W,1732
1272,INDIANA AVE,1500,S,132
1273,HALSTED ST,1238,S,1232
1274,LAVERGNE AVE,4412,N,1623
1275,NEW ENGLAND AVE,2904,N,2511
1276,NORTH AVE,1720,W,1433
1277,CICERO AVE,5050,S,814
1278,ELSTON AVE,4344,N,1722
1279,WAVELAND AVE,5031,W,1634
1280,LAFAYETTE AVE,8700,S,634
1281,STATE ST,800,S,123
1282,STATE ST,811,S,123
1283,LAKE SHORE DR SB,114,S,114
1284,WABASH AVE,601,N,1834
1285,GRAND AVE,4206,W,2534
1286,CICERO AVE,6250,S,813
1287,ASHLAND AVE,5000,S,931
1288,OHARE ST,527,W,1654
1289,LAKE PARK AVE,4301,S,222
1290,ARMITAGE AVE,1600,W,1432
1291,LOGAN BLVD,3000,W,1411
1292,CERMAK RD,2201,W,1034
1293,ASHLAND AVE,1952,S,1234
1294,WACKER DR,151,E,114
1295,DR MARTIN LUTHER KING JR DR,10132,S,511
1296,ASHLAND AVE,9400,S,2221
1297,GREENVIEW AVE,7364,N,2423
1298,WESTERN AVE,6603,S,832
1299,103RD ST,1600,E,431
1300,WABASH AVE,44,N,112
1301,HOYNE AVE,3258,N,1921
1302,LOCKWOOD AVE,1304,N,2532
1303,CENTRAL PARK AVE,3600,N,1732
1304,ADDISON ST,3127,W,1733
1305,BERNARD ST,4710,N,1723
1306,CERMAK RD,2861,W,1033
1307,OGDEN AVE,3431,W,1024
1308,47TH ST,2838,W,922
1309,LA SALLE DR,100,W,1814
1310,VAN BUREN ST,1600,W,1231
1311,LAKE SHORE DR,5700,S,331
1312,BELMONT AVE,4701,W,2521
1313,WESTERN AVE,5628,N,2011
1314,CANAL ST,1210,S,124
1315,MADISON ST,898,W,1224
1316,CONGRESS PKWY,1549,W,1231
1317,EXCHANGE AVE,7103,S,334
1318,LOWER WACKER DR,226,W,122
1319,NAGLE AVE,6173,N,1611
1320,ARCHER AVE,4944,S,821
1321,87TH ST,1111,E,412
1322,PRINCETON AVE,2238,S,914
1323,CALIFORNIA BLVD,1527,S,1023
1324,BROADWAY,4855,N,2033
1325,LAPORTE AVE,5045,S,814
1326,WESTERN AVE,5501,S,824
1327,76TH ST,1056,E,624
1328,BEACON ST,4460,N,1913
1329,PULASKI RD,4120,S,815
1330,MACKINAW AVE,9040,S,424
1331,KEDZIE AVE,6700,S,831
1332,LARAMIE AVE,598,S,1522
1333,83RD ST,4333,W,834
1334,KEDZIE AVE,6400,S,823
1335,65TH PL,3900,W,833
1336,IRVING PARK RD,2598,W,1911
1337,HALSTED ST,525,N,1214
1338,63RD ST,82,E,311
1339,HALSTED ST,9600,S,2223
1340,HALSTED ST,801,S,1232
1341,OHARE ST,538,W,1654
1342,EAST RIVER RD,5441,N,1614
1343,MORGAN ST,6425,S,723
1344,ELSTON AVE,4380,N,1722
1345,FRANCISCO AVE,6342,N,2413
1346,79TH ST,341,W,623
1347,CARPENTER ST,825,N,1213
1348,ADDISON ST,3659,W,1732
1349,BROADWAY,5710,N,2013
1350,WESTERN AVE,3247,S,912
1351,DEWITT PL,900,N,1833
1352,PAULINA ST,7018,N,2423
1353,PULASKI RD,1627,N,2535
1354,GRAND AVE,1204,W,1214
1355,NORTH AVE,4430,W,2533
1356,ELSTON AVE,4012,N,1723
1357,CLYBOURN AVE,1840,N,1811
1358,PULASKI RD,1600,S,1012
1359,79TH ST,3600,W,833
1360,STATE ST,7100,S,323
1361,KEDZIE AVE,4748,S,821
1362,KILDARE AVE,2429,N,2524
1363,KEDZIE AVE,4605,N,1713
1364,WESTERN AVE,11101,S,2212
1365,LAMON AVE,2405,N,2521
1366,WOOD ST,1299,S,1233
1367,BELMONT AVE,5729,W,2514
1368,OGDEN AVE,350,N,1215
1369,KEDZIE AVE,4353,S,922
1370,FOSTER AVE,3226,W,1712
1371,63RD ST,4500,W,813
1372,LINCOLN AVE,3820,N,1922
1373,LAKE SHORE DR SB,3300,S,211
1374,HARLEM AVE,5601,S,811
1375,GRAND AVE,7181,W,2512
1376,RIDGE AVE,5932,N,2012
1377,RIDGELAND AVE,7914,S,414
1378,LAFLIN ST,6059,S,713
1379,ASHLAND AVE,4837,S,933
1380,105TH ST,3752,E,432
1381,PULASKI RD,100,N,1114
1382,HIGHLAND AVE,1536,W,2433
1383,71ST ST,3606,W,833
1384,MICHIGAN AVE,646,N,1834
1385,ROSCOE ST,6117,W,1633
1386,YATES BLVD,7520,S,414
1387,LA SALLE DR,401,N,1831
1388,ARMITAGE AVE,4301,W,2534
1389,103RD ST,1702,E,431
1390,FLOURNOY ST,4340,W,1131
1391,ARCHER AVE,5207,S,815
1392,PEORIA ST,30,N,1224
1393,55TH ST,4230,W,815
1394,LAFAYETTE AVE,7900,S,623
1395,LAKE SHORE DR SB,5400,S,234
1396,MORGAN ST,401,N,1214
1397,48TH ST,1324,E,222
1398,BELMONT AVE,4958,W,1634
1399,HARRISON ST,5212,W,1522
1400,LAKE SHORE DR SB,2100,S,132
1401,STATE ST,2211,S,131
1402,MONROE ST,84,E,112
1403,70TH ST,1110,W,733
1404,DIVERSEY AVE,4605,W,2521
1405,GRAND AVE,6922,W,2512
1406,MILWAUKEE AVE,4874,N,1623
1407,41ST ST,3136,W,921
1408,LAKE SHORE DR,3600,N,1925
1409,LARAMIE AVE,1456,N,2532
1410,KEDZIE AVE,2500,S,1024
1411,HAMLIN BLVD,422,S,1133
1412,103RD ST,1953,W,2212
1413,PULASKI RD,508,N,1111
1414,OAK PARK AVE,2801,N,2511
1415,PRINCETON AVE,8128,S,622
1416,PERSHING RD,2402,W,911
1417,MONTROSE AVE,3918,W,1723
1418,EMERALD AVE,7400,S,732
1419,AUGUSTA BLVD,5098,W,1531
1420,MADISON ST,4400,W,1113
1421,GRAND AVE,5919,W,2515
1422,WESTERN AVE,7100,S,832
1423,KILPATRICK AVE,800,S,1131
1424,SHEFFIELD AVE,2500,N,1932
1425,JEFFERY BLVD,8459,S,412
1426,CONGRESS PKWY,2401,W,1135
1427,LAWRENCE AVE,5065,W,1623
1428,MADISON ST,5412,W,1522
1429,TILDEN ST,504,W,121
1430,87TH ST,41,W,634
1431,CHICAGO AVE,220,E,1833
1432,78TH ST,1362,W,612
1433,SHERIDAN RD,5701,N,2022
1434,15TH PL,833,W,1232
1435,MEADE AVE,1611,N,2513
1436,MICHIGAN AVE,343,N,114
1437,DAUPHIN AVE,9040,S,633
1438,76TH PL,3425,W,835
1439,ARCHER AVE,3441,S,912
1440,63RD ST,3,W,312
1441,ADDISON ST,5200,W,1634
1442,HERMITAGE AVE,8342,S,614
1443,MARQUETTE RD,2895,W,831
1444,MICHIGAN AVE,401,N,1834
1445,79TH ST,1706,E,414
1446,KEDZIE AVE,4002,N,1724
1447,LAKE SHORE DR SB,4200,S,214
1448,LAKE SHORE DR SB,993,N,1833
1449,OAKLEY AVE,1211,S,1233
1450,RICHMOND ST,4405,N,1724
1451,MICHIGAN AVE,201,S,114
1452,JEFFERY BLVD,7100,S,333
1453,LARAMIE AVE,2754,N,2514
1454,WESTERN AVE,2905,S,1034
1455,LONG AVE,3129,N,2514
1456,KILDARE AVE,4310,N,1722
1457,LA SALLE DR,1000,N,1824
1458,WESTERN AVE,6900,S,832
1459,WRIGHTWOOD AVE,3312,W,1412
1460,47TH ST,502,W,925
1461,LAWRENCE AVE,915,W,1914
1462,STONY ISLAND AVE,7600,S,411
1463,RACINE AVE,7900,S,612
1464,SHEFFIELD AVE,2801,N,1933
1465,SOUTH CHICAGO AVE,8312,S,412
1466,BISHOP ST,9300,S,2222
1467,STATE ST,1600,S,131
1468,KEDZIE AVE,1700,N,1421
1469,CAMPBELL AVE,5736,S,824
1470,HYDE PARK BLVD,1200,E,222
1471,THORNDALE AVE,1112,W,2433
1472,LAKE SHORE DR NB,1000,N,1824
1473,CICERO AVE,3207,N,1731
1474,FULLERTON AVE,6420,W,2512
1475,35TH ST,1747,W,912
1476,CICERO AVE,7969,S,834
1477,CLARK ST,3755,N,1923
1478,KARLOV AVE,110,N,1114
1479,INDEPENDENCE BLVD,1100,S,1133
1480,95TH ST,2000,E,413
1481,DIVISION ST,5331,W,1524
1482,STATE ST,7859,S,623
1483,PULASKI RD,4813,S,821
1484,STATE PKWY,1200,N,1824
1485,33RD ST,239,W,915
1486,ROOSEVELT RD,2200,W,1225
1487,ADDISON ST,1605,W,1922
1488,KEDZIE AVE,5257,S,923
1489,ARCHER AVE,6620,W,811
1490,DAMEN AVE,2335,S,1034
1491,106TH ST,2838,E,431
1492,GRAND AVE,4244,W,2534
1493,ASHLAND AVE,2000,S,1234
1494,CHESTNUT ST,5,W,1832
1495,CENTRAL AVE,227,S,1522
1496,COLUMBUS DR,528,N,1834
1497,WOODLAWN AVE,4755,S,222
1498,DAYTON ST,2010,N,1812
1499,CERMAK RD,1600,W,1234
1500,EWING AVE,9407,S,432
